[{"OBJECT_NAME":"CHECKMATE 7","OBJECT_ID":"2023-050E","EPOCH":"2026-03-09T21:02:25.149408","MEAN_MOTION":13.8516674,"ECCENTRICITY":0.00065951,"INCLINATION":81.0032,"RA_OF_ASC_NODE":166.6398,"ARG_OF_PERICENTER":213.3356,"MEAN_ANOMALY":146.7386,"EPHEMERIS_TYPE":0,"CLASSIFICATION_TYPE":"U","NORAD_CAT_ID":56166,"ELEMENT_SET_NO":999,"REV_AT_EPOCH":14835,"BSTAR":0.00014609546,"MEAN_MOTION_DOT":1.77e-6,"MEAN_MOTION_DDOT":0},{"OBJECT_NAME":"THOR ABLESTAR DEB","OBJECT_ID":"1961-015KU","EPOCH":"2026-03-09T02:48:14.798880","MEAN_MOTION":13.67784665,"ECCENTRICITY":0.01268137,"INCLINATION":65.8401,"RA_OF_ASC_NODE":105.8915,"ARG_OF_PERICENTER":226.113,"MEAN_ANOMALY":164.4893,"EPHEMERIS_TYPE":0,"CLASSIFICATION_TYPE":"U","NORAD_CAT_ID":13511,"ELEMENT_SET_NO":999,"REV_AT_EPOCH":27741,"BSTAR":0.00034707552,"MEAN_MOTION_DOT":2.32e-6,"MEAN_MOTION_DDOT":0}]
